{
  "type": "FeatureCollection",
  "features": [
    {
      "type": "Feature",
      "properties": {
        "norad_id": 28054,
        "name": "DMSP 5D-3 F16 (USA 172)",
        "group": "weather",
        "lat": 77.48201831430613,
        "lon": -51.54562053004585,
        "alt_km": 836.9590597088436,
        "timestamp": "2025-12-02T15:49:06.825892+00:00",
        "meta_object_name": "DMSP 5D-3 F16 (USA 172)",
        "meta_object_id": "2003-048A",
        "meta_epoch": "2025-12-02T06:59:48.384672",
        "meta_mean_motion": 14.14418179,
        "meta_eccentricity": 0.00069328,
        "meta_inclination": 99.0054,
        "meta_ra_of_asc_node": 353.666,
        "meta_arg_of_pericenter": 352.5762,
        "meta_mean_anomaly": 18.0199,
        "meta_ephemeris_type": 0,
        "meta_classification_type": "U",
        "meta_norad_cat_id": 28054,
        "meta_element_set_no": 999,
        "meta_rev_at_epoch": 14165,
        "meta_bstar": 0.00012769462,
        "meta_mean_motion_dot": 1.99e-06,
        "meta_mean_motion_ddot": 0,
        "tle_line1": "1 28054U 03048A   25336.29153223  .00000199  00000+0  12769-3 0  9996",
        "tle_line2": "2 28054  99.0054 353.6660 0006932 352.5762  18.0199 14.14418179141652"
      },
      "geometry": {
        "type": "Point",
        "coordinates": [
          -51.54562053004585,
          77.48201831430613
        ]
      }
    },
    {
      "type": "Feature",
      "properties": {
        "norad_id": 28912,
        "name": "METEOSAT-9 (MSG-2)",
        "group": "weather",
        "lat": -7.811614624886496,
        "lon": -5.042365730815118,
        "alt_km": 35794.08299069573,
        "timestamp": "2025-12-02T15:49:06.825939+00:00",
        "meta_object_name": "METEOSAT-9 (MSG-2)",
        "meta_object_id": "2005-049B",
        "meta_epoch": "2025-12-01T20:52:41.183904",
        "meta_mean_motion": 1.0027085,
        "meta_eccentricity": 0.00039633,
        "meta_inclination": 8.9132,
        "meta_ra_of_asc_node": 56.0736,
        "meta_arg_of_pericenter": 184.5981,
        "meta_mean_anomaly": 189.0848,
        "meta_ephemeris_type": 0,
        "meta_classification_type": "U",
        "meta_norad_cat_id": 28912,
        "meta_element_set_no": 999,
        "meta_rev_at_epoch": 502,
        "meta_bstar": 0,
        "meta_mean_motion_dot": 1.42e-06,
        "meta_mean_motion_ddot": 0,
        "tle_line1": "1 28912U 05049B   25335.86992111  .00000142  00000+0  00000+0 0  9990",
        "tle_line2": "2 28912   8.9132  56.0736 0003963 184.5981 189.0848  1.00270850  5029"
      },
      "geometry": {
        "type": "Point",
        "coordinates": [
          -5.042365730815118,
          -7.811614624886496
        ]
      }
    },
    {
      "type": "Feature",
      "properties": {
        "norad_id": 29522,
        "name": "DMSP 5D-3 F17 (USA 191)",
        "group": "weather",
        "lat": 3.825376205713263,
        "lon": -18.33133334173819,
        "alt_km": 846.977869085069,
        "timestamp": "2025-12-02T15:49:06.825956+00:00",
        "meta_object_name": "DMSP 5D-3 F17 (USA 191)",
        "meta_object_id": "2006-050A",
        "meta_epoch": "2025-12-02T05:37:02.266464",
        "meta_mean_motion": 14.14912278,
        "meta_eccentricity": 0.00091363,
        "meta_inclination": 98.7395,
        "meta_ra_of_asc_node": 341.8418,
        "meta_arg_of_pericenter": 257.7386,
        "meta_mean_anomaly": 102.2765,
        "meta_ephemeris_type": 0,
        "meta_classification_type": "U",
        "meta_norad_cat_id": 29522,
        "meta_element_set_no": 999,
        "meta_rev_at_epoch": 98456,
        "meta_bstar": 0.00015226182,
        "meta_mean_motion_dot": 2.51e-06,
        "meta_mean_motion_ddot": 0,
        "tle_line1": "1 29522U 06050A   25336.23405401  .00000251  00000+0  15226-3 0  9995",
        "tle_line2": "2 29522  98.7395 341.8418 0009136 257.7386 102.2765 14.14912278984563"
      },
      "geometry": {
        "type": "Point",
        "coordinates": [
          -18.33133334173819,
          3.825376205713263
        ]
      }
    },
    {
      "type": "Feature",
      "properties": {
        "norad_id": 32958,
        "name": "FENGYUN 3A",
        "group": "weather",
        "lat": -81.2296799245636,
        "lon": -2.18266738466305,
        "alt_km": 832.2873923257766,
        "timestamp": "2025-12-02T15:49:06.825970+00:00",
        "meta_object_name": "FENGYUN 3A",
        "meta_object_id": "2008-026A",
        "meta_epoch": "2025-12-02T06:05:06.933408",
        "meta_mean_motion": 14.19509144,
        "meta_eccentricity": 0.00084082,
        "meta_inclination": 98.6682,
        "meta_ra_of_asc_node": 276.0019,
        "meta_arg_of_pericenter": 342.6731,
        "meta_mean_anomaly": 17.4157,
        "meta_ephemeris_type": 0,
        "meta_classification_type": "U",
        "meta_norad_cat_id": 32958,
        "meta_element_set_no": 999,
        "meta_rev_at_epoch": 90746,
        "meta_bstar": 9.9842562e-05,
        "meta_mean_motion_dot": 1.67e-06,
        "meta_mean_motion_ddot": 0,
        "tle_line1": "1 32958U 08026A   25336.25355247  .00000167  00000+0  99843-4 0  9995",
        "tle_line2": "2 32958  98.6682 276.0019 0008408 342.6731  17.4157 14.19509144907468"
      },
      "geometry": {
        "type": "Point",
        "coordinates": [
          -2.18266738466305,
          -81.2296799245636
        ]
      }
    },
    {
      "type": "Feature",
      "properties": {
        "norad_id": 35491,
        "name": "GOES 14",
        "group": "weather",
        "lat": 1.03697109458058,
        "lon": -159.35050504004934,
        "alt_km": 35771.1946907088,
        "timestamp": "2025-12-02T15:49:06.825984+00:00",
        "meta_object_name": "GOES 14",
        "meta_object_id": "2009-033A",
        "meta_epoch": "2025-12-02T06:50:43.230912",
        "meta_mean_motion": 1.0027265,
        "meta_eccentricity": 0.00041476,
        "meta_inclination": 1.1697,
        "meta_ra_of_asc_node": 85.5328,
        "meta_arg_of_pericenter": 149.3275,
        "meta_mean_anomaly": 190.8694,
        "meta_ephemeris_type": 0,
        "meta_classification_type": "U",
        "meta_norad_cat_id": 35491,
        "meta_element_set_no": 999,
        "meta_rev_at_epoch": 461,
        "meta_bstar": 0,
        "meta_mean_motion_dot": -4.7e-07,
        "meta_mean_motion_ddot": 0,
        "tle_line1": "1 35491U 09033A   25336.28522258 -.00000047  00000+0  00000+0 0  9990",
        "tle_line2": "2 35491   1.1697  85.5328 0004147 149.3275 190.8694  1.00272650  4617"
      },
      "geometry": {
        "type": "Point",
        "coordinates": [
          -159.35050504004934,
          1.03697109458058
        ]
      }
    },
    {
      "type": "Feature",
      "properties": {
        "norad_id": 35951,
        "name": "DMSP 5D-3 F18 (USA 210)",
        "group": "weather",
        "lat": -55.764515911503786,
        "lon": 119.82586194513404,
        "alt_km": 857.5412039278071,
        "timestamp": "2025-12-02T15:49:06.825996+00:00",
        "meta_object_name": "DMSP 5D-3 F18 (USA 210)",
        "meta_object_id": "2009-057A",
        "meta_epoch": "2025-12-02T06:13:01.991712",
        "meta_mean_motion": 14.14759386,
        "meta_eccentricity": 0.00121071,
        "meta_inclination": 98.8822,
        "meta_ra_of_asc_node": 312.7129,
        "meta_arg_of_pericenter": 89.9865,
        "meta_mean_anomaly": 270.2695,
        "meta_ephemeris_type": 0,
        "meta_classification_type": "U",
        "meta_norad_cat_id": 35951,
        "meta_element_set_no": 999,
        "meta_rev_at_epoch": 83174,
        "meta_bstar": 0.00020018904,
        "meta_mean_motion_dot": 3.42e-06,
        "meta_mean_motion_ddot": 0,
        "tle_line1": "1 35951U 09057A   25336.25905083  .00000342  00000+0  20019-3 0  9998",
        "tle_line2": "2 35951  98.8822 312.7129 0012107  89.9865 270.2695 14.14759386831745"
      },
      "geometry": {
        "type": "Point",
        "coordinates": [
          119.82586194513404,
          -55.764515911503786
        ]
      }
    },
    {
      "type": "Feature",
      "properties": {
        "norad_id": 36411,
        "name": "EWS-G2 (GOES 15)",
        "group": "weather",
        "lat": -0.7403424654399526,
        "lon": 10.586167839213845,
        "alt_km": 35797.98558440889,
        "timestamp": "2025-12-02T15:49:06.826010+00:00",
        "meta_object_name": "EWS-G2 (GOES 15)",
        "meta_object_id": "2010-008A",
        "meta_epoch": "2025-12-02T05:14:38.883840",
        "meta_mean_motion": 1.0026755,
        "meta_eccentricity": 0.00059051,
        "meta_inclination": 0.7855,
        "meta_ra_of_asc_node": 86.0568,
        "meta_arg_of_pericenter": 169.385,
        "meta_mean_anomaly": 316.0641,
        "meta_ephemeris_type": 0,
        "meta_classification_type": "U",
        "meta_norad_cat_id": 36411,
        "meta_element_set_no": 999,
        "meta_rev_at_epoch": 5766,
        "meta_bstar": 0,
        "meta_mean_motion_dot": 5.8e-07,
        "meta_mean_motion_ddot": 0,
        "tle_line1": "1 36411U 10008A   25336.21850560  .00000058  00000+0  00000+0 0  9991",
        "tle_line2": "2 36411   0.7855  86.0568 0005905 169.3850 316.0641  1.00267550 57667"
      },
      "geometry": {
        "type": "Point",
        "coordinates": [
          10.586167839213845,
          -0.7403424654399526
        ]
      }
    }
  ]
}